{
  "type": "FeatureCollection",
  "name": "Chaco Canyon Great Houses",
  "crs": { "type": "name", "properties": { "name": "urn:ogc:def:crs:OGC:1.3:CRS84" } },
  "features": [
    {
      "type": "Feature",
      "id": 1,
      "geometry": { "type": "Point", "coordinates": [-107.9631, 36.0608] },
      "properties": {
        "name": "Pueblo Bonito",
        "type": "Great House",
        "rooms": 800,
        "stories": 4,
        "period": "850–1150 CE",
        "shape": "D-shaped",
        "alignment": "Back wall aligned to true north within 0.1°; solstice sunrise and sunset mark interior corner rooms",
        "note": "Largest great house at Chaco. One of the most studied prehistoric structures in North America. Construction spanned roughly three centuries.",
        "excavated_by": "Hyde Exploring Expedition 1896–1900; NPS"
      }
    },
    {
      "type": "Feature",
      "id": 2,
      "geometry": { "type": "Point", "coordinates": [-107.9550, 36.0597] },
      "properties": {
        "name": "Chetro Ketl",
        "type": "Great House",
        "rooms": 500,
        "stories": 4,
        "period": "1010–1110 CE",
        "shape": "Rectangular",
        "alignment": "Partially aligned to cardinal directions",
        "note": "Features an unusual colonnade — unique in all Chacoan architecture. Contains a great kiva and multiple smaller kivas.",
        "excavated_by": "Edgar Hewett, School of American Research, 1920–1940"
      }
    },
    {
      "type": "Feature",
      "id": 3,
      "geometry": { "type": "Point", "coordinates": [-107.9680, 36.0617] },
      "properties": {
        "name": "Pueblo del Arroyo",
        "type": "Great House",
        "rooms": 280,
        "stories": 3,
        "period": "1075–1115 CE",
        "shape": "L-shaped / C-shaped",
        "alignment": null,
        "note": "Adjoins a rare tri-walled circular structure — only two known at Chaco, purpose unknown. Significantly later construction than the core great houses.",
        "excavated_by": "Neil Judd, Smithsonian Institution, 1920s"
      }
    },
    {
      "type": "Feature",
      "id": 4,
      "geometry": { "type": "Point", "coordinates": [-107.9623, 36.0538] },
      "properties": {
        "name": "Casa Rinconada",
        "type": "Great Kiva",
        "rooms": null,
        "stories": 1,
        "period": "1000–1100 CE",
        "shape": "Circular (19.5 m interior diameter)",
        "alignment": "NE doorway aligns to summer solstice sunrise at 66.5°; four equally-spaced roof support niches align to cardinal directions",
        "note": "Largest isolated great kiva at Chaco — not attached to a residential great house. Likely a community ceremonial space open to the broader canyon population.",
        "excavated_by": "Gordon Vivian, NPS, 1931–1934"
      }
    },
    {
      "type": "Feature",
      "id": 5,
      "geometry": { "type": "Point", "coordinates": [-107.9455, 36.0520] },
      "properties": {
        "name": "Hungo Pavi",
        "type": "Great House",
        "rooms": 150,
        "stories": 2,
        "period": "900–1100 CE",
        "shape": "D-shaped",
        "alignment": null,
        "note": "One of the least excavated great houses in the canyon. Most rooms remain unexcavated. Interior great kiva still largely unexamined.",
        "excavated_by": "Minimal — largely unexcavated"
      }
    },
    {
      "type": "Feature",
      "id": 6,
      "geometry": { "type": "Point", "coordinates": [-107.9292, 36.0540] },
      "properties": {
        "name": "Una Vida",
        "type": "Great House",
        "rooms": 160,
        "stories": 2,
        "period": "850–1000 CE",
        "shape": "L-shaped / curved",
        "alignment": null,
        "note": "One of the earliest great houses. A nearby cliff face bears extensive petroglyph panels. Generally considered among the three founding great houses of the Chacoan system.",
        "excavated_by": "Minimal — trail access, limited excavation"
      }
    },
    {
      "type": "Feature",
      "id": 7,
      "geometry": { "type": "Point", "coordinates": [-108.0078, 36.0812] },
      "properties": {
        "name": "Penasco Blanco",
        "type": "Great House",
        "rooms": 150,
        "stories": 3,
        "period": "900–1125 CE",
        "shape": "Arc-shaped / oval",
        "alignment": null,
        "note": "Westernmost great house. Located near a cliff face bearing a pictograph panel that may depict the A.D. 1054 supernova (SN 1054, now the Crab Nebula), the crescent moon, and a handprint.",
        "excavated_by": "Gordon Vivian, NPS, 1930s"
      }
    },
    {
      "type": "Feature",
      "id": 8,
      "geometry": { "type": "Point", "coordinates": [-107.9632, 36.0736] },
      "properties": {
        "name": "Pueblo Alto",
        "type": "Great House",
        "rooms": 90,
        "stories": 1,
        "period": "1020–1100 CE",
        "shape": "Rectangular",
        "alignment": "Situated on canyon rim at terminus of the Great North Road; positioned for inter-site visibility across the road network",
        "note": "Mesa-top location with long sight lines in all directions. Junction point for multiple Chacoan roads. Trash mounds suggest periodic large gatherings.",
        "excavated_by": "National Geographic Society / NPS, 1976–1985"
      }
    },
    {
      "type": "Feature",
      "id": 9,
      "geometry": { "type": "Point", "coordinates": [-107.9700, 36.0633] },
      "properties": {
        "name": "Kin Kletso",
        "type": "Great House",
        "rooms": 55,
        "stories": 2,
        "period": "1125–1150 CE",
        "shape": "Rectangular",
        "alignment": null,
        "note": "Later construction than the core great houses, likely representing the McElmo Black-on-white architectural tradition. More compact and regularly planned than earlier structures.",
        "excavated_by": "Gordon Vivian, NPS, 1950–1951"
      }
    },
    {
      "type": "Feature",
      "id": 10,
      "geometry": { "type": "Point", "coordinates": [-107.9073, 36.0458] },
      "properties": {
        "name": "Wijiji",
        "type": "Great House",
        "rooms": 90,
        "stories": 2,
        "period": "1100–1150 CE",
        "shape": "L-shaped",
        "alignment": null,
        "note": "Easternmost great house. Unusually symmetrical and compact for its size. Reached via a 3-mile round-trip canyon trail past extensive petroglyph panels.",
        "excavated_by": "Gordon Vivian, NPS, 1930s"
      }
    }
  ]
}
