{
  "type": "FeatureCollection",
  "name": "Chacoan Road Network",
  "crs": { "type": "name", "properties": { "name": "urn:ogc:def:crs:OGC:1.3:CRS84" } },
  "features": [
    {
      "type": "Feature",
      "id": 1,
      "geometry": {
        "type": "LineString",
        "coordinates": [
          [-107.9632, 36.0736],
          [-107.9520, 36.1300],
          [-107.9410, 36.2100],
          [-107.9300, 36.3000],
          [-107.9180, 36.3900],
          [-107.9060, 36.4700]
        ]
      },
      "properties": {
        "name": "Great North Road",
        "direction": "North",
        "length_km": 50,
        "width_m": 9,
        "note": "The most extensively documented Chacoan road. Runs almost perfectly true north from Pueblo Alto for ~50 km toward Salmon Ruin and Aztec Ruins. Parallel berms and cuts suggest it was more ceremonial than utilitarian.",
        "color": "#c4892a"
      }
    },
    {
      "type": "Feature",
      "id": 2,
      "geometry": {
        "type": "LineString",
        "coordinates": [
          [-107.9632, 36.0736],
          [-107.9800, 36.0400],
          [-108.0100, 35.9800]
        ]
      },
      "properties": {
        "name": "South Road",
        "direction": "South",
        "length_km": 15,
        "width_m": 9,
        "note": "Southwest spur from Pueblo Alto. Leads toward outlier communities in the southern portion of the San Juan Basin.",
        "color": "#a07020"
      }
    },
    {
      "type": "Feature",
      "id": 3,
      "geometry": {
        "type": "LineString",
        "coordinates": [
          [-107.9632, 36.0736],
          [-107.8900, 36.0800],
          [-107.8200, 36.0900]
        ]
      },
      "properties": {
        "name": "East Road",
        "direction": "East",
        "length_km": 12,
        "width_m": 9,
        "note": "Eastern spur leading toward outlier communities. Passes near Una Vida and Wijiji.",
        "color": "#a07020"
      }
    },
    {
      "type": "Feature",
      "id": 4,
      "geometry": {
        "type": "LineString",
        "coordinates": [
          [-107.9632, 36.0736],
          [-108.0300, 36.0900],
          [-108.1100, 36.1100]
        ]
      },
      "properties": {
        "name": "West Road",
        "direction": "West",
        "length_km": 13,
        "width_m": 9,
        "note": "Western spur leading toward Penasco Blanco and outlier sites to the west. Documented via aerial photography and ground survey.",
        "color": "#a07020"
      }
    }
  ]
}
